NORAD_CAT_ID,OBJECT_NAME,OBJECT_TYPE,EPOCH,MEAN_MOTION,ECCENTRICITY,INCLINATION,RA_OF_ASC_NODE,ARG_OF_PERICENTER,MEAN_ANOMALY,BSTAR,MEAN_MOTION_DOT,MEAN_MOTION_DDOT,TLE_LINE0,TLE_LINE1,TLE_LINE2,SEMIMAJOR_AXIS,PERIOD,APOGEE,PERIGEE,DECAYED
52001.0,STARLINK-3659,PAYLOAD,2024-02-08 17:21:13,15.08834146,0.0001271,53.2176,190.7549,90.1311,269.9827,1.7591e-05,-8e-08,0.0,0 STARLINK-3659,1 52001U 22025AX  24039.72306914 -.00000008  00000-0  17591-4 0  9995,2 52001  53.2176 190.7549 0001271  90.1311 269.9827 15.08834146107725,6917.898,95.438,540.643,538.884,0.0
52001.0,STARLINK-3659,PAYLOAD,2024-02-09 18:47:22,15.08847143,0.000135,53.2175,185.996,89.2923,270.8223,0.00017556,2.508e-05,0.0,0 STARLINK-3659,1 52001U 22025AX  24040.78289919  .00002508  00000-0  17556-3 0  9994,2 52001  53.2175 185.9960 0001350  89.2923 270.8223 15.08847143107882,6917.859,95.437,540.657,538.79,0.0
52001.0,STARLINK-3659,PAYLOAD,2024-02-10 09:05:52,15.08832586,9.26e-05,53.2169,183.3159,117.6111,242.4975,1.8081e-06,-2.59e-06,0.0,0 STARLINK-3659,1 52001U 22025AX  24041.37907512 -.00000259  00000-0  18081-5 0  9994,2 52001  53.2169 183.3159 0000926 117.6111 242.4975 15.08832586107974,6917.903,95.438,540.409,539.127,0.0
52001.0,STARLINK-3659,PAYLOAD,2024-02-10 13:52:01,15.08838704,0.0001433,53.2167,182.4252,113.6082,246.5061,7.102e-05,8.42e-06,0.0,0 STARLINK-3659,1 52001U 22025AX  24041.57779036  .00000842  00000-0  71020-4 0  9992,2 52001  53.2167 182.4252 0001433 113.6082 246.5061 15.08838704106476,6917.884,95.438,540.741,538.758,0.0
52001.0,STARLINK-3659,PAYLOAD,2024-02-10 17:02:47,15.08841159,0.0001266,53.2171,181.8317,91.2448,268.8689,0.00010722,1.419e-05,0.0,0 STARLINK-3659,1 52001U 22025AX  24041.71026949  .00001419  00000-0  10722-3 0  9998,2 52001  53.2171 181.8317 0001266  91.2448 268.8689 15.08841159108021,6917.877,95.437,540.618,538.866,0.0
52001.0,STARLINK-3659,PAYLOAD,2024-02-11 13:42:47,15.08856402,0.0001572,53.2173,177.9697,71.3987,288.7176,4.8466e-05,4.84e-06,0.0,0 STARLINK-3659,1 52001U 22025AX  24042.57138267  .00000484  00000-0  48466-4 0  9998,2 52001  53.2173 177.9697 0001572  71.3987 288.7176 15.08856402106620,6917.83,95.437,540.783,538.608,0.0
52001.0,STARLINK-3659,PAYLOAD,2024-02-11 15:18:10,15.08852916,0.000172,53.2154,177.6734,65.2512,294.8659,5.09e-05,5.22e-06,0.0,0 STARLINK-3659,1 52001U 22025AX  24042.63762363  .00000522  00000-0  50900-4 0  9994,2 52001  53.2154 177.6734 0001720  65.2512 294.8659 15.08852916108160,6917.841,95.437,540.896,538.516,0.0
52001.0,STARLINK-3659,PAYLOAD,2024-02-12 11:58:11,15.08844775,0.0001653,53.2165,173.8052,97.3933,262.7247,0.00015611,2.198e-05,0.0,0 STARLINK-3659,1 52001U 22025AX  24043.49874505  .00002198  00000-0  15611-3 0  9991,2 52001  53.2165 173.8052 0001653  97.3933 262.7247 15.08844775108296,6917.866,95.437,540.874,538.587,0.0
52001.0,STARLINK-3659,PAYLOAD,2024-02-12 13:33:34,15.08846293,0.000167,53.2169,173.5073,101.654,258.4639,0.00011325,1.515e-05,0.0,0 STARLINK-3659,1 52001U 22025AX  24043.56498373  .00001515  00000-0  11325-3 0  9994,2 52001  53.2169 173.5073 0001670 101.6540 258.4639 15.08846293106777,6917.861,95.437,540.881,538.571,0.0
52001.0,STARLINK-3659,PAYLOAD,2024-02-12 15:08:57,15.08844305,0.0001475,53.2169,173.2111,91.1576,268.9585,0.00014515,2.023e-05,0.0,0 STARLINK-3659,1 52001U 22025AX  24043.63122284  .00002023  00000-0  14515-3 0  9996,2 52001  53.2169 173.2111 0001475  91.1576 268.9585 15.08844305106781,6917.867,95.437,540.753,538.712,0.0
52001.0,STARLINK-3659,PAYLOAD,2024-02-13 11:48:59,15.08839761,0.00015,53.2168,169.345,92.8644,267.252,-1.1234e-05,-4.67e-06,0.0,0 STARLINK-3659,1 52001U 22025AX  24044.49234997 -.00000467  00000-0 -11234-4 0  9994,2 52001  53.2168 169.3450 0001500  92.8644 267.2520 15.08839761108441,6917.881,95.438,540.784,538.708,0.0
52001.0,STARLINK-3659,PAYLOAD,2024-02-13 14:59:45,15.08842464,0.000149,53.2173,168.7506,89.2652,270.8511,1.2424e-05,-9e-07,0.0,0 STARLINK-3659,1 52001U 22025AX  24044.62482796 -.00000090  00000-0  12424-4 0  9994,2 52001  53.2173 168.7506 0001490  89.2652 270.8511 15.08842464106935,6917.873,95.437,540.769,538.707,0.0
52001.0,STARLINK-3659,PAYLOAD,2024-02-13 18:10:31,15.08845638,0.0001483,53.2168,168.1534,94.371,265.7451,3.0821e-05,2.03e-06,0.0,0 STARLINK-3659,1 52001U 22025AX  24044.75730467  .00000203  00000-0  30821-4 0  9995,2 52001  53.2168 168.1534 0001483  94.3710 265.7451 15.08845638106952,6917.863,95.437,540.754,538.702,0.0
52001.0,STARLINK-3659,PAYLOAD,2024-02-14 11:39:45,15.08837714,0.0001665,53.2169,164.8842,79.8801,280.2379,0.00015001,2.1e-05,0.0,0 STARLINK-3659,1 52001U 22025AX  24045.48594710  .00002100  00000-0  15001-3 0  9995,2 52001  53.2169 164.8842 0001665  79.8801 280.2379 15.08837714108598,6917.887,95.438,540.904,538.601,0.0
52001.0,STARLINK-3659,PAYLOAD,2024-02-14 13:15:07,15.08854058,0.0001535,53.2173,164.5853,101.6144,258.502,0.00013531,1.867e-05,0.0,0 STARLINK-3659,1 52001U 22025AX  24045.55217523  .00001867  00000-0  13531-3 0  9992,2 52001  53.2173 164.5853 0001535 101.6144 258.5020 15.08854058107075,6917.837,95.437,540.764,538.641,0.0
52001.0,STARLINK-3659,PAYLOAD,2024-02-15 11:30:33,15.08834769,0.0001412,53.2166,160.4203,92.75,267.3654,2.7728e-05,1.53e-06,0.0,0 STARLINK-3659,1 52001U 22025AX  24046.47955399  .00000153  00000-0  27728-4 0  9995,2 52001  53.2166 160.4203 0001412  92.7500 267.3654 15.08834769108744,6917.896,95.438,540.738,538.785,0.0
52001.0,STARLINK-3659,PAYLOAD,2024-02-15 14:41:19,15.08836016,0.0001376,53.2165,159.8257,78.0201,282.0946,3.8835e-05,3.3e-06,0.0,0 STARLINK-3659,1 52001U 22025AX  24046.61203396  .00000330  00000-0  38835-4 0  9992,2 52001  53.2165 159.8257 0001376  78.0201 282.0946 15.08836016107236,6917.893,95.438,540.709,538.806,0.0
52001.0,STARLINK-3659,PAYLOAD,2024-02-16 11:21:20,15.08844369,0.0001387,53.2173,155.9619,84.3889,275.7261,-1.8472e-05,-5.82e-06,0.0,0 STARLINK-3659,1 52001U 22025AX  24047.47315050 -.00000582  00000-0 -18472-4 0  9994,2 52001  53.2173 155.9619 0001387  84.3889 275.7261 15.08844369108890,6917.867,95.437,540.692,538.773,0.0
52001.0,STARLINK-3659,PAYLOAD,2024-02-16 14:32:05,15.08856645,0.0001388,53.2172,155.3677,85.2867,274.8284,8.7087e-05,1.099e-05,0.0,0 STARLINK-3659,1 52001U 22025AX  24047.60561906  .00001099  00000-0  87087-4 0  9992,2 52001  53.2172 155.3677 0001388  85.2867 274.8284 15.08856645107382,6917.83,95.437,540.655,538.734,0.0
52001.0,STARLINK-3659,PAYLOAD,2024-02-16 16:07:28,15.08857542,0.0001403,53.2172,155.0698,84.358,275.7572,9.2691e-05,1.188e-05,0.0,0 STARLINK-3659,1 52001U 22025AX  24047.67185780  .00001188  00000-0  92691-4 0  9997,2 52001  53.2172 155.0698 0001403  84.3580 275.7572 15.08857542108920,6917.827,95.436,540.662,538.721,0.0
52001.0,STARLINK-3659,PAYLOAD,2024-02-17 00:04:25,15.08830562,0.0001256,53.2169,153.5826,83.2823,276.8312,6.6585e-05,7.72e-06,0.0,0 STARLINK-3659,1 52001U 22025AX  24048.00307678  .00000772  00000-0  66585-4 0  9998,2 52001  53.2169 153.5826 0001256  83.2823 276.8312 15.08830562108978,6917.909,95.438,540.643,538.905,0.0
52001.0,STARLINK-3659,PAYLOAD,2024-02-17 14:22:54,15.08837748,0.0001398,53.2177,150.9063,81.2081,278.9069,9.1802e-05,1.173e-05,0.0,0 STARLINK-3659,1 52001U 22025AX  24048.59923692  .00001173  00000-0  91802-4 0  9998,2 52001  53.2177 150.9063 0001398  81.2081 278.9069 15.08837748107538,6917.887,95.438,540.719,538.785,0.0
52001.0,STARLINK-3659,PAYLOAD,2024-02-18 12:38:17,15.08843198,0.0001254,53.2154,146.7428,91.2758,268.8378,0.00015695,2.211e-05,0.0,0 STARLINK-3659,1 52001U 22025AX  24049.52659427  .00002211  00000-0  15695-3 0  9993,2 52001  53.2154 146.7428 0001254  91.2758 268.8378 15.08843198109207,6917.871,95.437,540.603,538.868,0.0
52001.0,STARLINK-3659,PAYLOAD,2024-02-19 12:29:05,15.08834894,0.000173,53.2182,142.2847,87.9378,272.1812,0.00013209,1.814e-05,0.0,0 STARLINK-3659,1 52001U 22025AX  24050.52020191  .00001814  00000-0  13209-3 0  9992,2 52001  53.2182 142.2847 0001730  87.9378 272.1812 15.08834894109353,6917.896,95.438,540.958,538.564,0.0
52001.0,STARLINK-3659,PAYLOAD,2024-02-19 15:39:51,15.08842133,0.0001583,53.2167,141.6876,93.7613,266.356,9.7143e-05,1.258e-05,0.0,0 STARLINK-3659,1 52001U 22025AX  24050.65267643  .00001258  00000-0  97143-4 0  9993,2 52001  53.2167 141.6876 0001583  93.7613 266.3560 15.08842133109376,6917.874,95.437,540.834,538.644,0.0
52001.0,STARLINK-3659,PAYLOAD,2024-02-20 12:19:52,15.08836151,0.0001388,53.2174,137.8202,99.1532,260.9617,0.00013924,1.929e-05,0.0,0 STARLINK-3659,1 52001U 22025AX  24051.51379935  .00001929  00000-0  13924-3 0  9996,2 52001  53.2174 137.8202 0001388  99.1532 260.9617 15.08836151109508,6917.892,95.438,540.717,538.797,0.0
52001.0,STARLINK-3659,PAYLOAD,2024-02-21 12:10:38,15.08846197,0.0001447,53.2162,133.3626,83.8342,276.2814,0.00017859,2.556e-05,0.0,0 STARLINK-3659,1 52001U 22025AX  24052.50739111  .00002556  00000-0  17859-3 0  9990,2 52001  53.2162 133.3626 0001447  83.8342 276.2814 15.08846197109657,6917.861,95.437,540.727,538.725,0.0
52001.0,STARLINK-3659,PAYLOAD,2024-02-21 21:42:57,15.08847239,0.0001137,53.2169,131.5775,75.593,284.5188,6.9557e-05,8.2e-06,0.0,0 STARLINK-3659,1 52001U 22025AX  24052.90483040  .00000820  00000-0  69557-4 0  9996,2 52001  53.2169 131.5775 0001137  75.5930 284.5188 15.08847239108187,6917.858,95.437,540.51,538.937,0.0
52001.0,STARLINK-3659,PAYLOAD,2024-02-22 04:04:31,15.08832544,0.0001857,53.2172,130.3886,87.9233,272.1972,6.2039e-05,6.99e-06,0.0,0 STARLINK-3659,1 52001U 22025AX  24053.16980365  .00000699  00000-0  62039-4 0  9999,2 52001  53.2172 130.3886 0001857  87.9233 272.1972 15.08832544109754,6917.903,95.438,541.053,538.484,0.0
52001.0,STARLINK-3659,PAYLOAD,2024-02-22 12:01:26,15.08839565,0.0001612,53.218,128.9045,93.1814,266.9363,2.2382e-05,6.8e-07,0.0,0 STARLINK-3659,1 52001U 22025AX  24053.50100032  .00000068  00000-0  22382-4 0  9999,2 52001  53.2180 128.9045 0001612  93.1814 266.9363 15.08839565108277,6917.882,95.438,540.862,538.632,0.0
